NORAD_CAT_ID,OBJECT_NAME,OBJECT_TYPE,EPOCH,MEAN_MOTION,ECCENTRICITY,INCLINATION,RA_OF_ASC_NODE,ARG_OF_PERICENTER,MEAN_ANOMALY,BSTAR,MEAN_MOTION_DOT,MEAN_MOTION_DDOT,TLE_LINE0,TLE_LINE1,TLE_LINE2,SEMIMAJOR_AXIS,PERIOD,APOGEE,PERIGEE,DECAYED
56784.0,STARLINK-6354,PAYLOAD,2023-12-09 22:00:00,15.21538428,0.0003287,70.0005,234.6063,262.6944,46.7903,-0.044733,-0.00935341,0.0,0 STARLINK-6354,1 56784U 23078T   23343.91667824 -.00935341  00000-0 -44733-1 0  9997,2 56784  70.0005 234.6063 0003287 262.6944  46.7903 15.21538428  5970,6879.337,94.641,503.463,498.94,0.0
56784.0,STARLINK-6354,PAYLOAD,2023-12-10 06:00:00,15.20896236,0.0003316,70.0002,233.7355,266.7749,67.616,-0.046411,-0.00951033,0.0,0 STARLINK-6354,1 56784U 23078T   23344.25001157 -.00951033  00000-0 -46411-1 0  9997,2 56784  70.0002 233.7355 0003316 266.7749  67.6160 15.20896236 30521,6881.273,94.681,505.42,500.856,0.0
56784.0,STARLINK-6354,PAYLOAD,2023-12-10 14:00:01,15.20191688,0.0003374,70.0004,232.8658,261.2615,97.2719,-0.042492,-0.00849503,0.0,0 STARLINK-6354,1 56784U 23078T   23344.58334491 -.00849503  00000-0 -42492-1 0  9996,2 56784  70.0004 232.8658 0003374 261.2615  97.2719 15.20191688  6032,6883.399,94.725,507.586,502.941,0.0
56784.0,STARLINK-6354,PAYLOAD,2023-12-10 22:00:01,15.19579507,0.0003352,70.0005,231.997,264.7879,117.1459,-0.047294,-0.00933865,0.0,0 STARLINK-6354,1 56784U 23078T   23344.91668981 -.00933865  00000-0 -47294-1 0  9997,2 56784  70.0005 231.9970 0003352 264.7879 117.1459 15.19579507 30629,6885.247,94.763,509.42,504.805,0.0
56784.0,STARLINK-6354,PAYLOAD,2023-12-11 14:00:01,15.18238225,0.0003292,70.0004,230.2618,262.9287,163.2936,-0.045255,-0.00864486,0.0,0 STARLINK-6354,1 56784U 23078T   23345.58334491 -.00864486  00000-0 -45255-1 0  9994,2 56784  70.0004 230.2618 0003292 262.9287 163.2936 15.18238225  6022,6889.302,94.847,513.435,508.899,0.0
56784.0,STARLINK-6354,PAYLOAD,2023-12-11 22:00:01,15.17620778,0.0003286,70.0004,229.3955,265.2676,182.0105,-0.049947,-0.00931979,0.0,0 STARLINK-6354,1 56784U 23078T   23345.91668981 -.00931979  00000-0 -49947-1 0  9999,2 56784  70.0004 229.3955 0003286 265.2676 182.0105 15.17620778  5951,6891.171,94.885,515.3,510.771,0.0
56784.0,STARLINK-6354,PAYLOAD,2023-12-12 06:00:00,15.1698242,0.0003165,70.0,228.5301,268.2913,199.1336,-0.052044,-0.00951826,0.0,0 STARLINK-6354,1 56784U 23078T   23346.25001157 -.00951826  00000-0 -52044-1 0  9998,2 56784  70.0000 228.5301 0003165 268.2913 199.1336 15.16982420 30829,6893.104,94.925,517.15,512.787,0.0
56784.0,STARLINK-6354,PAYLOAD,2023-12-12 14:00:01,15.1628647,0.0003187,70.0002,227.6656,262.0855,224.7844,-0.048319,-0.00872091,0.0,0 STARLINK-6354,1 56784U 23078T   23346.58334491 -.00872091  00000-0 -48319-1 0  9990,2 56784  70.0002 227.6656 0003187 262.0855 224.7844 15.16286470  5884,6895.213,94.969,519.275,514.88,0.0
56784.0,STARLINK-6354,PAYLOAD,2023-12-12 22:00:00,15.15659407,0.0003192,70.0,226.802,265.2327,240.2868,-0.052424,-0.00925248,0.0,0 STARLINK-6354,1 56784U 23078T   23346.91667824 -.00925248  00000-0 -52424-1 0  9991,2 56784  70.0000 226.8020 0003192 265.2327 240.2868 15.15659407 30928,6897.114,95.008,521.181,516.778,0.0
56784.0,STARLINK-6354,PAYLOAD,2023-12-13 00:00:00,15.15482645,0.0003174,70.0,226.586,265.4019,334.6617,-0.051108,-0.00899445,0.0,0 STARLINK-6354,1 56784U 23078T   23347.00001157 -.00899445  00000-0 -51108-1 0  9990,2 56784  70.0000 226.5860 0003174 265.4019 334.6617 15.15482645  5950,6897.651,95.019,521.705,517.326,0.0
56784.0,STARLINK-6354,PAYLOAD,2023-12-13 14:00:01,15.1433317,0.0003139,69.9998,225.0772,261.0366,279.4409,-0.051401,-0.00877215,0.0,0 STARLINK-6354,1 56784U 23078T   23347.58334491 -.00877215  00000-0 -51401-1 0  9990,2 56784  69.9998 225.0772 0003139 261.0366 279.4409 15.14333170  6017,6901.141,95.091,525.172,520.839,0.0
56784.0,STARLINK-6354,PAYLOAD,2023-12-13 22:00:00,15.13698411,0.0003166,69.9997,224.2161,264.6585,292.1247,-0.05496,-0.00918118,0.0,0 STARLINK-6354,1 56784U 23078T   23347.91667824 -.00918118  00000-0 -54960-1 0  9997,2 56784  69.9997 224.2161 0003166 264.6585 292.1247 15.13698411  6014,6903.07,95.131,527.12,522.749,0.0
56784.0,STARLINK-6354,PAYLOAD,2023-12-14 06:00:00,15.1307218,0.0003093,69.9993,223.3558,265.8384,306.4574,-0.058719,-0.00960316,0.0,0 STARLINK-6354,1 56784U 23078T   23348.25001157 -.00960316  00000-0 -58719-1 0  9999,2 56784  69.9993 223.3558 0003093 265.8384 306.4574 15.13072180 31131,6904.974,95.171,528.975,524.704,0.0
56784.0,STARLINK-6354,PAYLOAD,2023-12-14 14:00:01,15.12378681,0.0003153,69.9995,222.4965,260.0836,326.9613,-0.054521,-0.00880452,0.0,0 STARLINK-6354,1 56784U 23078T   23348.58334491 -.00880452  00000-0 -54521-1 0  9994,2 56784  69.9995 222.4965 0003153 260.0836 326.9613 15.12378681  5845,6907.085,95.214,531.128,526.772,0.0
56784.0,STARLINK-6354,PAYLOAD,2023-12-14 20:00:01,15.11923624,0.0003135,69.9996,221.8526,264.5119,243.0693,-0.059653,-0.00945874,0.0,0 STARLINK-6354,1 56784U 23078T   23348.83334491 -.00945874  00000-0 -59653-1 0  9993,2 56784  69.9996 221.8526 0003135 264.5119 243.0693 15.11923624 31225,6908.471,95.243,532.502,528.17,0.0
56784.0,STARLINK-6354,PAYLOAD,2023-12-14 22:00:01,15.11738716,0.0003178,69.9994,221.638,264.4587,336.6104,-0.057647,-0.00911997,0.0,0 STARLINK-6354,1 56784U 23078T   23348.91668981 -.00911997  00000-0 -57647-1 0  9996,2 56784  69.9994 221.6380 0003178 264.4587 336.6104 15.11738716  5890,6909.034,95.255,533.095,528.704,0.0
56784.0,STARLINK-6354,PAYLOAD,2023-12-15 14:00:01,15.10423758,0.0003204,69.9994,219.9236,260.3895,6.1825,-0.057705,-0.00882386,0.0,0 STARLINK-6354,1 56784U 23078T   23349.58334491 -.00882386  00000-0 -57705-1 0  9990,2 56784  69.9994 219.9236 0003204 260.3895   6.1825 15.10423758 31330,6913.044,95.337,537.124,532.694,0.0
56784.0,STARLINK-6354,PAYLOAD,2023-12-15 22:00:00,15.09780493,0.0003254,69.9993,219.0677,265.2568,12.9301,-0.060681,-0.00909447,0.0,0 STARLINK-6354,1 56784U 23078T   23349.91667824 -.00909447  00000-0 -60681-1 0  9991,2 56784  69.9993 219.0677 0003254 265.2568  12.9301 15.09780493  5981,6915.007,95.378,539.122,534.622,0.0
56784.0,STARLINK-6354,PAYLOAD,2023-12-16 06:00:02,15.09159892,0.0003184,69.9991,218.2126,265.968,23.1005,-0.065876,-0.00965874,0.0,0 STARLINK-6354,1 56784U 23078T   23350.25002315 -.00965874  00000-0 -65876-1 0  9995,2 56784  69.9991 218.2126 0003184 265.9680  23.1005 15.09159892 31430,6916.903,95.417,540.97,536.565,0.0
56784.0,STARLINK-6354,PAYLOAD,2023-12-16 14:00:01,15.08467967,0.0003234,69.9994,217.3585,261.1739,37.885,-0.060959,-0.00883203,0.0,0 STARLINK-6354,1 56784U 23078T   23350.58334491 -.00883203  00000-0 -60959-1 0  9996,2 56784  69.9994 217.3585 0003234 261.1739  37.8850 15.08467967  5908,6919.018,95.461,543.12,538.645,0.0
56784.0,STARLINK-6354,PAYLOAD,2023-12-16 22:00:00,15.07822518,0.0003274,69.9993,216.5052,266.5785,41.7489,-0.063832,-0.00906813,0.0,0 STARLINK-6354,1 56784U 23078T   23350.91667824 -.00906813  00000-0 -63832-1 0  9998,2 56784  69.9993 216.5052 0003274 266.5785  41.7489 15.07822518 31537,6920.992,95.502,545.123,540.591,0.0
56784.0,STARLINK-6354,PAYLOAD,2023-12-17 14:00:01,15.06512644,0.0003243,69.9995,214.8011,262.354,62.2136,-0.064416,-0.00884729,0.0,0 STARLINK-6354,1 56784U 23078T   23351.58335648 -.00884729  00000-0 -64416-1 0  9998,2 56784  69.9995 214.8011 0003243 262.3540  62.2136 15.06512644  5863,6925.003,95.585,549.114,544.623,0.0
56784.0,STARLINK-6354,PAYLOAD,2023-12-17 22:00:00,15.05865583,0.0003259,69.9995,213.9504,268.0082,63.4199,-0.067176,-0.00905032,0.0,0 STARLINK-6354,1 56784U 23078T   23351.91667824 -.00905032  00000-0 -67176-1 0  9996,2 56784  69.9995 213.9504 0003259 268.0082  63.4199 15.05865583 31684,6926.987,95.626,551.109,546.594,0.0
56784.0,STARLINK-6354,PAYLOAD,2023-12-18 14:00:01,15.04556944,0.0003222,69.9996,212.2515,263.2538,79.6561,-0.068053,-0.00886494,0.0,0 STARLINK-6354,1 56784U 23078T   23352.58334491 -.00886494  00000-0 -68053-1 0  9996,2 56784  69.9996 212.2515 0003222 263.2538  79.6561 15.04556944 31782,6931.003,95.709,555.101,550.635,0.0
56784.0,STARLINK-6354,PAYLOAD,2023-12-18 22:00:01,15.03909038,0.000327,69.9997,211.4032,269.4145,78.1344,-0.070866,-0.00905743,0.0,0 STARLINK-6354,1 56784U 23078T   23352.91668981 -.00905743  00000-0 -70866-1 0  9991,2 56784  69.9997 211.4032 0003270 269.4145  78.1344 15.03909038  5883,6932.994,95.75,557.126,552.591,0.0
56784.0,STARLINK-6354,PAYLOAD,2023-12-19 06:00:00,15.0328609,0.0003209,69.9995,210.5558,268.9536,82.3133,-0.076974,-0.00974085,0.0,0 STARLINK-6354,1 56784U 23078T   23353.25001157 -.00974085  00000-0 -76974-1 0  9996,2 56784  69.9995 210.5558 0003209 268.9536  82.3133 15.03286090 31882,6934.909,95.79,558.999,554.548,0.0
56784.0,STARLINK-6354,PAYLOAD,2023-12-19 14:00:01,15.02604749,0.000323,69.9998,209.7094,264.1561,90.1186,-0.07223,-0.00892616,0.0,0 STARLINK-6354,1 56784U 23078T   23353.58334491 -.00892616  00000-0 -72230-1 0  9992,2 56784  69.9998 209.7094 0003230 264.1561  90.1186 15.02604749  5981,6937.005,95.834,561.111,556.629,0.0
56784.0,STARLINK-6354,PAYLOAD,2023-12-19 22:00:00,15.01951787,0.0003289,69.9999,208.8636,270.1327,86.3729,-0.074623,-0.00905352,0.0,0 STARLINK-6354,1 56784U 23078T   23353.91667824 -.00905352  00000-0 -74623-1 0  9998,2 56784  69.9999 208.8636 0003289 270.1327  86.3729 15.01951787 31980,6939.015,95.875,563.163,558.598,0.0
56784.0,STARLINK-6354,PAYLOAD,2023-12-20 14:00:01,15.00652148,0.0003237,70.0,207.1748,264.1015,94.4969,-0.076593,-0.00898426,0.0,0 STARLINK-6354,1 56784U 23078T   23354.58334491 -.00898426  00000-0 -76593-1 0  9994,2 56784  70.0000 207.1748 0003237 264.1015  94.4969 15.00652148 32088,6943.021,95.958,567.134,562.639,0.0
56784.0,STARLINK-6354,PAYLOAD,2023-12-20 22:00:00,14.99939177,0.0003157,70.0,206.3317,270.5012,87.9943,-0.066271,-0.00771386,0.0,0 STARLINK-6354,1 56784U 23078T   23354.91667824 -.00771386  00000-0 -66271-1 0  9997,2 56784  70.0000 206.3317 0003157 270.5012  87.9943 14.99939177  5963,6945.221,96.004,569.279,564.893,0.0
